id,name,eng_name,address,eng_address,phone,google_place_id,category,created_at,updated_at,latitude,longitude
1,"ラビングハット","Loving Hut Tokyo","東京都千代田区神田神保町1-54　岡田ビル 2F","Okada Bldg. 2F, 1-54 Kanda-Jimbocho, Chiyoda City",03-5577-6880,ChIJVVX5gRaMGGARYLZ7NqJQUrw,1,"2023-05-20 15:11:10.320905","2023-06-04 10:44:11.039433",35.698365,139.7575612
2,"T's たんたん　グランスタ東京店","T’s TANTAN GRANSTA TOKYO","東京都千代田区丸の内1-9-1　グランスタ東京","GRANSTA TOKYO, 1-9-1 Marunouchi, Chiyoda City",03-3218-8040,ChIJtTLL9fuLGGARm6IP54k3xn4,1,"2023-05-20 15:11:10.325403","2023-06-04 11:14:14.500808",35.6797625,139.7669513
3,"アインソフ ギンザ","AIN SOPH. GINZA","東京都中央区銀座4-12-1","4-12-1 Ginza, Chuo City",050-3134-4241,ChIJQ95c0uCLGGARcUHJMJzpTTE,1,"2023-05-20 15:11:10.327590","2023-06-04 11:28:45.837430",35.670184,139.767976
4,"コメダイズ","KOMEDA is □","東京都中央区築地1-13-1　銀座松竹スクエア 1F","Ginza Shochiku Square 1F, 1-13-1 Tsukiji, Chuo City",03-6260-6369,ChIJTbD0tqGLGGAR_F9iW6BGesQ,1,"2023-05-20 15:11:10.329548","2023-06-04 11:28:46.159456",35.6680171,139.7694521
5,"ovgo Baker Edo St.","ovgo Baker Edo St.","東京都中央区日本橋小伝馬町10-8","10-8 Nihonbashi Kodenmacho, Chuo City",03-6667-0328,ChIJ79XB9L-JGGAR6E27HkUnDhc,1,"2023-05-20 15:11:10.331459","2023-06-04 11:28:46.758060",35.6926131,139.7851994
6,"FALAFEL BROTHERS 六本木店","FALAFEL BROTHERS Roppongi","東京都港区六本木5-1-10","5-1-11 Roppongi, Minato City",03-6459-2844,ChIJd_3zaZ2LGGARqmMxQpj7svE,1,"2023-05-20 15:11:10.333405","2023-06-04 11:28:47.269108",35.6623493,139.7328198
7,TENZO,TENZO,"東京都港区西新橋1-22-4","1-22-4 Nishi-Shimbashi, Minato City",03-6811-1183,ChIJQX2BmTCLGGARAmptKLBGnGo,1,"2023-05-20 15:11:10.335409","2023-06-04 11:28:47.782101",35.6683946,139.7520473
8,"アインソフ ジャーニー シンジュク","AIN SOPH. Journey Shinjuku","東京都新宿区新宿3-8-9　新宿Qビル B1F/1F/2F","Shinjuku Q Bldg. B1F/1F/2F, 3-8-9 Shinjuku, Shinjuku City",050-3503-8688,ChIJyUynodyMGGARfdwk4A8pub8,1,"2023-05-20 15:11:10.338252","2023-06-04 11:28:48.296718",35.6907077,139.7066642
9,"グレートレイクス","GREAT LAKES","東京都新宿区西早稲田3-27-4","3-27-4 Nishi-Waseda, Shinjuku City",03-6278-9286,ChIJMf_jllKNGGARC30llvWNJ7E,1,"2023-05-20 15:11:10.340255","2023-06-04 11:28:48.806743",35.7116878,139.7107192
10,"marbre vegan","marbre vegan","東京都新宿区新宿2-1-5 パークサイドスクウェア1階","Parkside Square 1F, 2-1-5 Shinjuku, Shinjuku City",03-6380-6898,ChIJQc2aedONGGARSgi_VjUib-w,1,"2023-05-20 15:11:10.342389","2023-06-04 11:28:49.315244",35.6884502,139.7090709
11,"大泉工場NISHIAZABU","OIZUMI KOJO NISHIAZABU","東京都港区西麻布2-13-13","2-13-13 Nishi-Azabu, Minato City",03-6427-4749,ChIJq6pGmHqLGGARH1G8KB0zmR4,1,"2023-05-20 15:11:10.344243","2023-06-04 11:28:49.768477",35.660066,139.7231528
12,"そーよ エスペラント・ビーガン・カフェ","SOJO Esperanto-Vegana Kafejo","東京都新宿区早稲田鶴巻町111 小山ビル 1F","Koyama Bldg. 1F, 111 Waseda-Tsurumakicho, Shinjuku City",03-6302-1639,ChIJYc8nGgONGGAROLk4tmOltlg,1,"2023-05-20 15:11:10.346110","2023-06-04 11:28:50.337019",35.708267,139.723423
13,"ヴィーガンレストラン 根津の谷","Vegan Restaurant Nezunoya","東京都文京区根津1-1-14 ら～いん根津 1F","Raain Nezu 1F, 1-1-14 Nezu, Bunkyo City",03-3823-0030,ChIJxUAqfi6MGGAR0S2gJX3GawQ,1,"2023-05-20 15:11:10.353305","2023-06-04 11:28:50.849390",35.7175468,139.7651712
14,"ヴェスぺラ",VESPERA,"東京都文京区千駄木3-44-1","3-44-1 Sendagi, Bunkyo City",070-1471-0315,ChIJVxJYEs6NGGARBSfWJBZDwl0,1,"2023-05-20 15:11:10.355590","2023-06-04 11:28:51.368572",35.7286485,139.7637809
15,"普茶料理 梵","Fucha Vegetarian Cuisine BON","東京都台東区竜泉1-2-11","1-2-11 Ryusen, Taito City",03-3872-0375,ChIJq93re5KOGGARyOWE3u9BOzo,1,"2023-05-20 15:11:10.357522","2023-06-04 11:28:51.878330",35.7229176,139.7903898
16,"浅草　鳩家","Asakusa Hatoya","東京都台東区浅草2-3-3","2-3-3 Asakusa, Taito City",050-1442-5418,ChIJi1IiO8yPGGARzQ-RIKVmvjg,1,"2023-05-20 15:11:10.359425","2023-06-04 11:28:52.393202",35.712908,139.7961596
17,"悦納",injoy,"東京都台東区花川戸1-9-1　AUSPICE Asakusa
Hanakawado 3F","AUSPICE Asakusa Hanakawado 3F, 1-9-1
Hanakawado, Taito City",03-5830-2333,ChIJ0fvqe_ePGGARlWT4bIjr880,1,"2023-05-20 15:11:10.361313","2023-06-04 11:28:52.795377",35.712699,139.798665
18,"まるごとVeganダイニング浅草","Marugoto Vegan Dinning Asakusa","東京都台東区花川戸1-3-3　矢吹ビル 1F","Yabuki Bldg. 1F, 1-3-3 Hanakawado, Taito City",03-5830-8134,ChIJ1al4IsSOGGAR7bkjU4KOhuc,1,"2023-05-20 15:11:10.363148","2023-06-04 11:28:53.312007",35.7117593,139.7988997
19,"Vegan Cafe PQ's","Vegan Cafe PQ's","東京都台東区竜泉1-1-2","1-1-2 Ryusen, Taito City",03-6877-1588,ChIJ65uaICuPGGAREPQxQaI9G5g,1,"2023-05-20 15:11:10.365038","2023-06-04 11:28:53.717277",35.7228434,139.7906348
20,"松竹圓カフェ","Shochiku-en Café","東京都台東区西浅草2-7-6","2-7-6 Nishi-Asakusa, Taito City",03-6802-8355,ChIJox26VjWPGGAR3s4NJfnEgww,1,"2023-05-20 15:11:10.366888","2023-06-04 11:28:54.232872",35.7130426,139.7891875
21,"松竹圓製菓所","Shochiku-en sweets house Vegan & Gluten-free","東京都台東区日本堤1-32-1","1-32-1 Nihonzutsumi, Taito City",03-6802-4804,ChIJxVrtCoyPGGARHdTCmUW-Gcs,1,"2023-05-20 15:11:10.369101","2023-06-04 11:28:54.535237",35.725602,139.7969937
22,"T'sたんたんエキュート上野店","T's TANTAN ecute Ueno","東京都台東区上野7-1-1 エキュート上野 3F","ecute Ueno 3F, 7-1-1 Ueno, Taito City",03-5826-5618,ChIJpZgmEZyOGGAR7s8YQBwbV18,1,"2023-05-20 15:11:10.371056","2023-06-04 11:28:55.052511",35.7140681,139.7771408
23,"ヴィーガン餃子","VEGAN GYOZA","東京都台東区根岸3-11-17 陽光ビル1F","Yoko Bldg. 1F, 3-11-17 Negishi, Taito City",03-3871-7017,ChIJ3xyKtKePGGARglfZPr8JVjE,1,"2023-05-20 15:11:10.373039","2023-06-04 11:28:55.560167",35.7243377,139.7796986
24,"FruOats Factory","FruOats Factory","東京都江東区扇橋1-12-20","1-12-20 Ogibashi, Koto City","なし",ChIJJao-FBOJGGARSMlkSdB6ldU,1,"2023-05-20 15:11:10.374920","2023-06-04 11:28:56.077461",35.6829816,139.8128071
25,"Vegan Ramen UZU Tokyo","Vegan Ramen UZU Tokyo","東京都江東区豊洲6-1-16　teamLab Planets TOKYO 敷地内","teamLab Planets TOKYO, 6-1-16 Toyosu, Koto City","なし",ChIJJYSt6a-JGGARqQuIi30SzyE,1,"2023-05-20 15:11:10.376924","2023-06-04 11:28:56.486553",35.6490661,139.7902416
26,"プラスヴィーガニック自由が丘","Plus Veganique JIYUGAOKA","東京都目黒区自由が丘1-19-23","1-19-23 Jiyugaoka, Meguro City",090-9823-8310,ChIJ_1QeNx_1GGARs-Eckiu7SEQ,1,"2023-05-20 15:11:10.378805","2023-06-04 11:28:56.814417",35.6134949,139.6699969
27,"レインボーバードランデヴー","Rainbow Bird Rendezvous","東京都目黒区祐天寺1-1-1","1-1-1 Yutenji, Meguro City",03-3791-5470,ChIJ9f8eTkqLGGARV5LV0lnGG1Q,1,"2023-05-20 15:11:10.380655","2023-06-04 11:28:57.202810",35.6407956,139.6944078
28,"菜道",SAIDO,"東京都目黒区自由が丘2-15-10　A&Dハウス","A&D House, 2-15-10 Jiyugaoka, Meguro City",03-5726-9500,ChIJO3Ut0Qf1GGARD337o3ZIUdg,1,"2023-05-20 15:11:10.382646","2023-06-04 11:28:57.716264",35.6077378,139.6662781
29,"T'sレストラン","T's Restaurant","東京都目黒区自由が丘2-9-6　Luz自由が丘 B1F","Luz Jiyugaoka B1F, 2-9-6 Jiyugaoka, Meguro City",03-3717-0831,ChIJAQCwNB71GGARFZQZlswav94,1,"2023-05-20 15:11:10.384574","2023-06-04 11:28:58.221978",35.6091291,139.6681306
30,"CORI. Vegan Food & Craft Beer","CORI. Vegan Food & Craft Beer","東京都世田谷区上馬4-2-20","4-2-20 Kamiuma, Setagaya City",03-6450-7556,ChIJT7S0Kxj1GGARFwUzDOyL7s4,1,"2023-05-20 15:11:10.386417","2023-06-04 11:28:58.739260",35.6346877,139.6629264
31,"薬膳食堂ちゃぶ膳","Food Therapy Diner Chabuzen","東京都世田谷区代田6-16-20　近野荘","Konnoso, 6-16-20 Daita, Setagaya City",080-6603-8587,ChIJeUo1MxLzGGAR7goAMaeBYxI,1,"2023-05-20 15:11:10.388230","2023-06-04 11:28:59.246114",35.666837,139.66336
32,"ヴィーガン創作家庭料理KLASINA","KLASINA VEGAN TOKYO","東京都世田谷区北沢3-26-6　本堂1 1F左","Hondo 1 1F-Hidari, 3-26-6 Kitazawa, Setagaya City",03-3466-3596,ChIJ9aktYynzGGARYM7Ye208Oio,1,"2023-05-20 15:11:10.390138","2023-06-04 11:28:59.761115",35.6641611,139.6681988
34,"ユニバーサルベイクスアンドカフェ","Universal bakes and café","東京都世田谷区代田5-9-15","5-9-15 Daita, Setagaya City",03-6335-4972,ChIJMe1MNGPzGGAR0mvtXYCoewM,1,"2023-05-20 15:11:10.394039","2023-06-04 11:29:00.066216",35.6588362,139.6610244
35,"2foods 渋谷ロフト店","2foods Shibuya LOFT shop","東京都渋⾕区宇⽥川町21-1 渋谷ロフト2F","Shibuya LOFT 2F, 21-1 Udagawacho, Shibuya City",03-6416-4025,ChIJs_brL_CNGGARXo2Uh0-nAR4,1,"2023-05-20 15:11:10.396018","2023-06-04 11:29:00.484377",35.6609769,139.6997177
36,"FALAFEL BROTHERS 恵比寿店","FALAFEL BROTHERS Ebisu","東京都渋谷区広尾1-1-36 1F","1F, 1-1-36 Hiroo, Shibuya City",03-6427-3398,ChIJI6LGHUGLGGARRMv_N15FXGA,1,"2023-05-20 15:11:10.397921","2023-06-04 11:29:00.993656",35.6468222,139.7081627
37,"hal okada vegan sweets lab","hal okada vegan sweets lab","東京都渋谷区広尾5-4-18 1F","1F, 5-4-18 Hiroo, Shibuya City",,ChIJ9Y9K_3aLGGARYQIxj08v9rY,1,"2023-05-20 15:11:10.399827","2023-06-04 11:29:01.397644",35.6508811,139.7216508
38,"ヘンプ　カフェ　トウキョウ","HEMP CAFE TOKYO","東京都渋谷区東3-17-14　クリスティエビス 8F","Christie Ebisu 8F, 3-17-14 Higashi, Shibuya City",03-6427-1984,ChIJA2njkUGLGGARhBfpvL_WHk0,1,"2023-05-20 15:11:10.401715","2023-06-04 11:29:01.812994",35.6491018,139.7099421
39,"KO-SO CAFE BIORISE","KO-SO CAFE BIORISE","東京都渋谷区東3-25-3　ライオンズプラザ恵比寿 1F","Lions Plaza Ebisu 1F, 3-25-3 Higashi, Shibuya City",03-3409-3405,ChIJAQBwlkGLGGARSXclXVaKwzs,1,"2023-05-20 15:11:10.403634","2023-06-04 11:29:02.122971",35.648607,139.7097654
40,"Terra Burger & Bowl","Terra Burger & Bowl","東京都渋谷区猿楽町26-2 C-B1 Sarugaku B棟","C-B1 Sarugaku B, 26-2 Sarugakucho, Shibuya City",050-8880-1364,ChIJb7raUBqLGGARr134tnAmtR0,1,"2023-05-20 15:11:10.405615","2023-06-04 11:29:02.525974",35.6484689,139.7011416
41,"ヴィーガン居酒屋真さか","Vegan Restaurant Masaka","東京都渋谷区宇田川町15-1　渋谷パルコ B1F","SHIBUYA PARCO B1F, 15-1 Udagawacho, Shibuya City",03-5422-3020,ChIJFSiUFu-NGGAR_UfGBQ6wT7M,1,"2023-05-20 15:11:10.407593","2023-06-04 11:29:03.040157",35.6621009,139.6984833
42,"和のかし 巡","Wa no Kashi Meguri","東京都渋谷区上原3-2-1","3-2-1 Uehara, Shibuya City",03-5738-8050,ChIJZ2nihEjzGGARIxhBrCo08E0,1,"2023-05-20 15:11:10.409315","2023-06-04 11:29:03.550684",35.6674884,139.6814478
43,"パンドブラン","Pain de BRUN","東京都杉並区久我山5-6-16　シンエイマンション 1F","Shinei Mansion 1F, 5-6-16 Kugayama, Suginami City",03-5941-3613,ChIJVVXpofvxGGARGUn6e6quVfs,1,"2023-05-20 15:11:10.411244","2023-06-04 11:29:03.957159",35.6877508,139.6021298
44,"べジアンドグレインカフェ　メウノータ","vege & grain cafe meu nota","東京都杉並区高円寺南3-45-11　RIC高円寺 2F","RIC Kouenji 2F, 3-45-11 Koenji-Minami, Suginami City",03-5929-9422,ChIJ38yDKH3yGGARccmg-9TDEAo,1,"2023-05-20 15:11:10.413147","2023-06-04 11:29:04.366744",35.7034038,139.6479684
45,"アインソフ ソア","AIN SOPH. soar","東京都豊島区東池袋3-5-7　ユニオンビル 1F","Union Bldg. 1F, 3-5-7 Higashi-Ikebukuro, Toshima City",03-5944-9699,ChIJAQAw5GWNGGAReOa91wcFHVE,1,"2023-05-20 15:11:10.434715","2023-06-04 11:29:04.783087",35.7313972,139.7170927
46,"自然野菜レストラン 駒込ナーリッシュ",Nourish,"東京都豊島区駒込1-37-8　コーポ市川 2F","Corpo Ichikawa 2F, 1-37-8 Komagome, Toshima City",03-3944-8300,ChIJO_AVzpWNGGARGtQPc1HmWr4,1,"2023-05-20 15:11:10.447012","2023-06-04 11:29:05.192224",35.7357576,139.7480405
47,"T's たんたん 池袋店","T's TANTAN Ikebukuro","東京都豊島区南池袋1-28-2 JR池袋駅構内","Inside the JR Ikebukuro Sta., 1-28-2 Minami-Ikebukuro, Toshima City",03-5958-0375,ChIJp_EGAwaNGGAR5mYzAC6Dw8w,1,"2023-05-20 15:11:10.467001","2023-06-04 11:29:05.601452",35.7299922,139.7107375
48,"ナチュラルカフェ さくら亭","Natural Cafe Sakuratei","東京都八王子市上野町21-1","21-1 Uenomachi, Hachioji City",042-625-8622,ChIJS-ldv9UdGWAR1o9JMlBtkVs,1,"2023-05-20 15:11:10.469275","2023-06-04 11:29:05.905899",35.6545288,139.3281161
49,"マクロビミール ひとこきゅう","Macrobi Meal Hitokokyu","東京都武蔵野市西久保1-10-1","1-10-1 Nishikubo, Musashino City",0422-38-6566,ChIJPZ6NY6XvGGARJQzyvxkpdXE,1,"2023-05-20 15:11:10.471380","2023-06-04 11:29:06.216982",35.7045826,139.5583557
50,"BRIANZA TOKYO","BRIANZA TOKYO","東京都千代田区大手町2-6-4 常盤橋タワー2F","Tokiwabashi Tower 2F, 2-6-4 Otemachi, Chiyoda City",03-6262-7862,ChIJE25JCtSLGGARd4dyswe5DyY,2,"2023-05-20 15:11:10.473344","2023-06-04 11:29:06.729759",35.6842619,139.7705347
51,"CHAYA ナチュラル＆ワイルドテーブル 日比谷","CHAYA Natural & Wild Table Hibiya","東京都千代田区有楽町1-2-2　日比谷シャンテ B2F","Hibiya Chanter B2F, 1-2-2 Yurakucho, Chiyoda City",03-5757-8780,ChIJ505ZSu6LGGARRCfAbP15XB8,2,"2023-05-20 15:11:10.475264","2023-06-04 11:29:07.032706",35.6731218,139.7600046
52,"『九州じゃんがら』 秋葉原本店","Kyushu Jangara Akihabara-honten","東京都千代田区外神田3-11-6","3-11-6 Soto-Kanda, Chiyoda City",03-3251-4059,ChIJ99Gizh2MGGARuDpsme65T9s,2,"2023-05-20 15:11:10.477181","2023-06-04 11:29:07.443824",35.7007814,139.7706793
53,"礼華四君子草",raika,"東京都千代田区有楽町1-1-2 東京ミッドタウン日比谷 3F","Tokyo Midtown Hibiya 3F, 1-1-2 Yurakucho,
Chiyoda City",03-6273-3327,ChIJQdsfJe6LGGARoGfItnnRQc0,2,"2023-05-20 15:11:10.479154","2023-06-04 11:29:07.715107",35.673962,139.7596299
54,"SOLEIL 日比谷OKUROJI店","SOLEIL HIBIYA OKUROJI","東京都千代田区内幸町1-7-1　HIBIYA OKUROJI (H-8)","HIBIYA OKUROJI (H-8), 1-7-1 Uchisaiwaicho,
Chiyoda City",03-6205-8873,ChIJe85CX16LGGARXwZQ9qTmfmk,2,"2023-05-20 15:11:10.481182","2023-06-04 11:29:08.058399",35.6716166,139.7597997
55,"南インド料理ダクシン 東日本橋店","DAKSHIN Higashi Nihombashi","東京都中央区日本橋馬喰町1-12-1","1-12-1 Nihombashi- Bakurocho, Chuo City",03-3249-9155,ChIJ28iiv7KOGGAR2jKAetl0A8U,2,"2023-05-20 15:11:10.483132","2023-06-04 11:29:08.472539",35.6943323,139.7842428
56,"南インド料理ダクシン 八重洲店","DAKSHIN Yaesu","東京都中央区八重洲2-5-12　プレリービル B1F","Prairie Bldg. B1F, 2-5-12 Yaesu, Chuo City",03-6225-2640,ChIJKRZVs_yLGGARbdRSKzJU7yM,2,"2023-05-20 15:11:10.485025","2023-06-04 11:29:08.872242",35.677844,139.7687085
57,"ファンケル ブラウン ライス ミイルズ","FANCL BROWN RICE MEALS","東京都中央区銀座5-8-16 ファンケル銀座スクエア B1F","FANCL GINZA SQUARE B1F, 5-8-16 Ginza, Chuo City",03-3289-0721,ChIJH-nkhWKLGGARl8N6Qo6i3FI,2,"2023-05-20 15:11:10.486958","2023-06-04 11:29:09.188555",35.6704405,139.7644481
58,FARO,FARO,"東京都中央区銀座8-8-3 東京銀座資生堂ビル10F","Tokyo Ginza Shiseido Bldg. 10F, 8-8-3 Ginza,
Chuo City",0120-862-150/03-3572-3911,ChIJDcLMIcZfGGAROIlnMWFW7Ps,2,"2023-05-20 15:11:10.488903","2023-06-04 11:29:09.693005",35.5489017,139.6746986
59,"『九州じゃんがら』 銀座店","Kyushu Jangara Ginza","東京都中央区銀座6-12-17　銀座片桐ビル 1F","Ginza Katagiri Bidg. 1F, 6-12-17 Ginza, Chuo City",03-3572-3025,ChIJ7YW0VOaLGGARhGuFEiGbqS0,2,"2023-05-20 15:11:10.490839","2023-06-04 11:29:10.010677",35.6694086,139.7648685
60,"CHAYA マクロビ 汐留","Chaya Macrobi Shiodome","東京都港区東新橋1-6-3 ザ ロイヤルパークホテル アイコニック 東京汐留 1F","The Royal Park Iconic Tokyo Shiodome Bldg. 1F, 1-6-3 Higashi-Shinbashi, Minato City",03-3573-3616,ChIJOUxo88KLGGAR1VPdU7bWSs4,2,"2023-05-20 15:11:10.492910","2023-06-04 11:29:10.516888",35.6642199,139.7605131
61,"『九州じゃんがら』赤坂店","Kyushu Jangara Akasaka","東京都港区赤坂2-15-15","2-15-15 Akasaka, Minato City",03-3505-7882,ChIJUTU8xIaLGGARB4tAqP-UOS4,2,"2023-05-20 15:11:10.494943","2023-06-04 11:29:10.925529",35.6716388,139.7379706
62,"L for You","L for You","東京都港区南青山3-9-3　池上ビル 1F","Ikegami Bldg. 1F, 3-9-3 Minami-Aoyama, Minato City",03-6459-2504,ChIJccz3GJ6MGGARzN-aZeyWadE,2,"2023-05-20 15:11:10.496897","2023-06-04 11:29:11.233094",35.6661064,139.7155239
63,"野菜がおいしいダイニング LONGING HOUSE 北青山","LONGING HOUSE Kita Aoyama","東京都港区北青山2-12-4 VORT青山Leap B1F 001","VORT Aoyama Leap B1F 001, 2-12-4 Kita-Aoyama, Minato City",03-6433-5808,ChIJgxpVaaCMGGAR7kCYnxU5lkw,2,"2023-05-20 15:11:10.498832","2023-06-04 11:29:11.643961",35.6709319,139.7156109
64,"精進料理 醍醐","Shojin Cuisine DAIGO","東京都港区愛宕2-3-1　愛宕フォレストタワー","Atago Forest Tower, 2-3-1 Atago, Minato City",03-3431-0811,ChIJLXYlT5SLGGARR1b1ARFUUmw,2,"2023-05-20 15:11:10.500851","2023-06-04 11:29:12.053121",35.663512,139.7489627
65,"shojin 宗胡","shojin SOUGO","東京都港区六本木6-1-8　六本木グリーンビル 3F","Roppongi Green Bldg. 3F, 6-1-8 Roppongi, Minato City",03-5414-1133,ChIJYfexWZ2LGGARnca0sslzjCw,2,"2023-05-20 15:11:10.502804","2023-06-04 11:29:12.461221",35.66254,139.732203
66,"シンシア・ガーデン","SINCERE GARDEN","東京都港区北青山3-5-4　青山高野ビル 2F","Aoyama Takano Bldg. 2F, 3-5-4 Kita-Aoyama, Minato City","03−5775−7375",ChIJebt_VZ6MGGAR6-t03SvSpYM,2,"2023-05-20 15:11:10.504715","2023-06-04 11:29:12.765783",35.6674825,139.7142606
67,"ザ・バーン","The Burn","東京都港区北青山1-2-3 青山ビルヂング B1F","Aoyama Bldg. B1F, 1-2-3 Kita-Aoyama, Minato City",03-6812-9390,ChIJyQ29vi6NGGART6214O8ZaCU,2,"2023-05-20 15:11:10.506603","2023-06-04 11:29:13.180341",35.6730288,139.7236026
68,"やさいや鉄板焼野菜 赤坂店★近隣六本木はトル","YASAIYA Teppanyaki yasai Akasaka","東京都港区赤坂3-11-14 赤坂ベルゴ 1F","Akasaka Belgo 1F, 3-11-14 Akasaka, Minato City",050-3188-8284,ChIJh-OTq3iMGGARZ2OZE7_wagA,2,"2023-05-20 15:11:10.508474","2023-06-04 11:29:13.588637",35.6748037,139.7374719
69,"やさいや鉄板焼野菜 六本木店","YASAIYA Teppanyaki yasai Roppongi","東京都港区六本木7丁目18-8 岸田ビル1F","Kishida Bldg. 1F, 7-18-8 Roppongi, Minato City",03-6434-0790,ChIJ93qs1XmLGGAR_Jngg53ge70,2,"2023-05-20 15:11:10.510367","2023-06-04 11:29:13.997109",35.6621749,139.7292199
70,"アンドサンドイッチ","& sandwich.","東京都新宿区新宿1-5-7 スキラ御苑 1F","Sukilagyoen 1F, 1-5-7 Sinjuku, Shinjuku City",03-6709-9455,ChIJ2e9xbMKMGGARtOepBa7GTfc,2,"2023-05-20 15:11:10.512344","2023-06-04 11:29:14.406918",35.6880674,139.7106036
71,"グリーンイタリアン　トルチャ","Green Italian Torcia","東京都新宿区新宿3-14-1　新宿伊勢丹本館 7F","Shinjuku Isetan Main Bldg. 7F, 3-14-1 Shinjuku,
Shinjuku City",03-3357-0014,ChIJVVVVpNuMGGARrpfA9QKo2eQ,2,"2023-05-20 15:11:10.514282","2023-06-04 11:29:14.713657",35.6913968,139.7048306
72,"FAR EAST BAZAAR ルミネ新宿店","FAR EAST BAZAAR LUMINE Shinjuku","東京都新宿区西新宿1-1-5 ルミネ新宿1 6F","LUMINE Shinjuku 1 6F, 1-1-5 Nishi-Shinjuku, Shinjuku City",03-3342-2230,ChIJfV0yV1iLGGARl1Xz09sClOM,2,"2023-05-20 15:11:10.516181","2023-06-04 11:29:15.015508",35.6892281,139.6992962
73,"米麹・甘酒専門店 MURO神楽坂","Noren Muro","東京都新宿区神楽坂1-12-6","1-12-6 Kagurazaka, Shinjuku City",03-5579-2910,ChIJ3RH0tUSMGGARXu4ifg93lTw,2,"2023-05-20 15:11:10.518062","2023-06-04 11:29:15.430004",35.7008743,139.7422485
74,"菜食健美","Saishoku Kenbi","東京都新宿区百人町2-21-26","2-21-26 Hyakunincho, Shinjuku City",03-5332-3627,ChIJL0fQjul6A2AR1SQ6fENXlVY,2,"2023-05-20 15:11:10.519956","2023-06-04 11:29:15.836937",35.1382439,136.9594605
75,"搾り屋 935","Shiboriya 935","東京都文京区本郷3-28-4","3-28-4 Hongo, Bunkyo City",03-3816-1071,ChIJ2edswDuMGGAREjmUSuQI_6E,2,"2023-05-20 15:11:10.521806","2023-06-04 11:29:16.246698",35.7058267,139.7613766
76,Sobaful,Sobaful,"東京都文京区音羽2-4-2 ノーブル音羽108","Noburu Otowa 108, 2-4-2 Otowa, Bunkyo City",03-6912-0165,ChIJJ5wjiqmNGGARgZ3jRYg-D2Q,2,"2023-05-20 15:11:10.523740","2023-06-04 11:29:16.655415",35.7187916,139.728059
77,"豆腐room Dy's","tofuroom Dy's","東京都文京区千駄木2-48-18　カテリーナ千駄木 101","Katerina Sendagi 101, 2-48-18 Sendagi,
Bunkyo City","非公開",ChIJmRaDVM2NGGARN_QQZ15NSDI,2,"2023-05-20 15:11:10.525669","2023-06-04 11:29:17.068907",35.7213002,139.7623905
78,"浅草豆花大王","Asakusa Tofa Daio","東京都台東区浅草4-43-4","4-43-4 Asakusa, Taito City",03-5849-4580,ChIJvR_ituqOGGARUgkdETJAf4E,2,"2023-05-20 15:11:10.527568","2023-06-04 11:29:17.474705",35.7163635,139.7938384
79,"福行燈",Fukuandon,"東京都台東区日本堤2-34-10","2-34-10 Nihonzutsumi, Taito City",03-3873-8611,ChIJ4xTcsZGPGGARk8lWxEjpvv0,2,"2023-05-20 15:11:10.529471","2023-06-04 11:29:17.882745",35.7282891,139.7955244
80,"ぐるあつ",Guruatsu,"東京都台東区東上野4-21-6　宮澤ビル 1F","Miyazawa Bldg. 1F, 4-21-6, Higashi-Ueno, Taito City",03-5830-3700,ChIJ50DJXZaOGGAR8DK3nKwONCQ,2,"2023-05-20 15:11:10.531357","2023-06-04 11:29:18.191405",35.7149615,139.7813933
81,"ぐるあつ すたんど","Guruatsu Stand","東京都台東区松が谷3-8-4","3-8-4 Matsugaya, Taito City","なし",ChIJq5e5HZeOGGAR9VnaMb6vAcI,2,"2023-05-20 15:11:10.533177","2023-06-04 11:29:18.499590",35.7152177,139.7855446
82,"味農家",Minoya,"東京都台東区鳥越1-5-5","1-5-5 Torigoe, Taito City",03-3866-3795,ChIJI7QW-MKMGGARPRX7wGx3564,2,"2023-05-20 15:11:10.534993","2023-06-04 11:29:18.911614",35.6884416,139.7094366
83,"SANDWICH LAB","SANDWICH LAB","東京都台東区浅草橋 3-10-8","3-10-8 Asakusabashi Taito City",03-5825-4076,ChIJM19RcMWPGGARpet3hzTpxoc,2,"2023-05-20 15:11:10.536754","2023-06-04 11:29:19.426105",35.7013953,139.7843617
84,"インドネシア料理 チャベ目黒店","CABE MEGURO Indonesian Restaurant","東京都品川区上大崎3-5-4　第一田中ビル 2F","No.1 Tanaka Bldg. 2F, 3-5-4 Kami-Osaki, Shinagawa City",03-6432-5748,ChIJ7xIE9SSLGGAR0_8Iqp4hSmE,2,"2023-05-20 15:11:10.538507","2023-06-04 11:29:19.837478",35.6345254,139.7194373
85,"News Cafe","News Cafe","東京都目黒区自由が丘2-9-11　八幸ビル 401","Hachikoh Bldg. 401, 2-9-11 Jiyugaoka, Meguro City",03-3725-6450,ChIJ44XnMB71GGARm7GHVBntCkU,2,"2023-05-20 15:11:10.540377","2023-06-04 11:29:20.144445",35.6089603,139.6676582
86,"プレマルシェ・ジェラテリア&オルタナティブ・ジャンク®︎中目黒駅前店","Premarche' Gelateria & Alternative Junk®︎","東京都目黒区上目黒2-9-36　目黒銀座ビル 1F","Meguro Ginza Bldg. 1F, 2-9-36 Kami-Meguro, Meguro City",03-6303-0141,ChIJod38nYmLGGARq7q92PaC9TY,2,"2023-05-20 15:11:10.542176","2023-06-04 11:29:20.546459",35.643269,139.699463
87,"冷麺ダイニングつるしこ 自由が丘店","Reimen Dining TSURUSHIKO Jiyugaoka","東京都目黒区自由が丘1-23-4　樋口ビル 1F","Higuchi Bldg. 1F, 1-23-4 Jiyugaoka, Meguro City",03-6421-4412,ChIJ4X1esYH1GGARlSyGEmRUK0E,2,"2023-05-20 15:11:10.543953","2023-06-04 11:29:20.963548",35.6111124,139.6698442
88,"CHAYA Cafe オーガニックコーヒー & ブレッド（羽田空港ターミナル1内）","CHAYA Cafe Organic Coffee & Bread","東京都大田区羽田空港3-3-2
第1旅客ターミナル南ウィング2Ｆ　出発ゲート
イセタン羽田ストア（レディス）内","Haneda Airport Terminal 1 2F, 3-3-2 Haneda Airport, Ota City",03-5757-8780,ChIJzzZJoPBjGGAR_AoJ-TZXiz0,2,"2023-05-20 15:11:10.545816","2023-06-04 11:29:21.370882",35.5480332,139.7843478
89,"ミセスイスタンブール","Mrs Istanbul","東京都大田区羽田空港3-4-2　第2ターミナルビル 3F","Haneda Airport Terminal 2 3F, 3-4-2 Haneda Airport, Ota City",03-5756-6183,ChIJNX5YTPFjGGARPS1HrhvKxBs,2,"2023-05-20 15:11:10.547691","2023-06-04 11:29:21.668289",35.5504519,139.7887096
90,"QOL Cafe Mam Aina","QOL Cafe Mam Aina","東京都大田区田園調布1-35-9　田園調布三慶マンション101","Denenchofu Sankei Apartment 101, 1-35-9 Denenchofu, Ota City",03-6715-6277,ChIJAQEMUb71GGAR7FNI4H5Nmt8,2,"2023-05-20 15:11:10.549601","2023-06-04 11:29:21.980977",35.5906369,139.6733918
91,"カフェ ステイハッピー","cafe Stay Happy","東京都世田谷区代沢2-29-14　宮川ビル 2F","Miyagawa Bldg. 2F, 2-29-14 Daizawa, Setagaya City",03-3410-5959,ChIJVyxPjGnzGGARYoMSa6OxIuo,2,"2023-05-20 15:11:10.551509","2023-06-04 11:29:22.296237",35.6605086,139.6691732
92,"ギャビーセタガヤ","Gavy Setagaya","東京都世田谷区世田谷2-6-5 グリーンアネックスII 102","Green Annex Ⅱ 102, 2-6-5 Setagaya, Setagaya City",03-5799-6870,ChIJO7xYioPzGGARsyF__kUHocA,2,"2023-05-20 15:11:10.553379","2023-06-04 11:29:22.703241",35.6433459,139.6453956
93,"かまいキッチン","Kamay Kitchen","東京都世田谷区北沢2-33-6　第2ミチルビル 2F","No. 2 Michiru Bldg. 2F, 2-33-6 Kitazawa, Setagaya City",03-6318-5323,ChIJzzSS92rzGGARd3GQsXG5Uc8,2,"2023-05-20 15:11:10.555117","2023-06-04 11:29:23.001005",35.6630455,139.6687586
94,"くずねるや",KUDZUNERUYA,"東京都世田谷区奥沢4-15-13","4-15-13 Okusawa, Setagaya City",03-4361-4074,ChIJFduv_an1GGARscagaR1NjVw,2,"2023-05-20 15:11:10.556924","2023-06-04 11:29:23.304456",35.6014944,139.6715897
95,"CARVAAN TOKYO","CARVAAN TOKYO","東京都渋谷区渋谷2-24-12 渋谷スクランブルスクエア12階","Shibuya Scrumble Square 12F, 2-24-12 Shibuya, Shibuya City",03-6451-1772,ChIJ2egXXWqLGGARyY4mCjJbaKQ,2,"2023-05-20 15:11:10.558698","2023-06-04 11:29:23.727854",35.658308,139.7022323
96,Chipoon,Chipoon,"東京都渋谷区神宮前1-11-6　ラフォーレ原宿 2F
GOOD MEAL MARKET","GOOD MEAL MARKET, Laforet HARAJUKU 2F, 1-11-6 Jingumae, Shibuya City",03-6804-2123,ChIJB0GNmkGNGGAR_LPk2KFDnw8,2,"2023-05-20 15:11:10.560475","2023-06-04 11:29:24.021491",35.6692365,139.7055595
97,"フィコ＆ポムム ジュース 青山店","FICO & POMUM JUICE AOYAMA","東京都渋谷区神宮前5-52-2　青山オーバルビル 1F","Aoyama Oval Bldg. 1F, 5-52-2 Jingumae,
Shibuya City",03-6805-0480,ChIJeU7KeF-LGGARMJJez8koSRk,2,"2023-05-20 15:11:10.562224","2023-06-04 11:29:24.325916",35.6627779,139.7092921
98,"モミの木ハウス","FOOD CONCEPT SHOP MOMINOKI HOUSE","東京都渋谷区神宮前2-18-5","2-18-5 Jingumae, Shibuya City",03-3405-9144,ChIJx_3ezKKMGGARQEOKPcBptaE,2,"2023-05-20 15:11:10.563992","2023-06-04 11:29:24.648800",35.6725262,139.7098164
99,"haishop cafe 渋谷スクランブルスクエア店","haishop cafe SHIBUYA SCRUMBLE SQUARE","東京都渋谷区渋谷2-24-12 渋谷スクランブルスクエア 7F","SHIBUYA SCRUMBLE SQUARE 7F, 2-24-12 Shibuya, Shibuya City",03-4400-9532,ChIJVxYUBI-LGGAR01DyfrnlO0Q,2,"2023-05-20 15:11:10.565866","2023-06-04 11:29:24.943677",35.6584638,139.7022621
100,"メデルデリ","medel deli","東京都渋谷区恵比寿西1-17-1　プルミエール恵比寿 1F","Premiere Ebisu 1F, 1-17-1 Ebisu-Nishi, Shibuya City",03-6427-8580,ChIJNXyTWUGLGGARHh7uo-z5knY,2,"2023-05-20 15:11:10.567687","2023-06-04 11:29:25.254973",35.6484212,139.7072142
101,"ミラン・ナタラジ 渋谷店★近隣原宿表参道はトル","Milan Nataraj Shibuya","東京都渋谷区神南1-22-7　岩本ビル 3F","Iwamoto Bldg. 3F, 1-22-7 Jinnan, Shibuya City",03-6416-9022,ChIJ1WqcdKiMGGARDBlhREtS9IE,2,"2023-05-20 15:11:10.569468","2023-06-04 11:29:25.569885",35.661125,139.701048
102,"ナタラジ原宿表参道店","Nataraj Harajuku Omotesando","東京都渋谷区神宮前6-28-6　キュープラザ8F","Q-plaza 8F, 6-28-6 Jingumae, Shibuya City",03-6427-7515,ChIJAQBwS6SMGGARg1K4GG0EPE0,2,"2023-05-20 15:11:10.571171","2023-06-04 11:29:25.875153",35.667033,139.704106
103,"ヌードルスタンドトーキョー",NoodleStandTokyo,"東京都渋谷区神宮前1-23-26　神宮前COMICHI 2F","JINGUMAE COMICHI 2F, 1-23-26 Jingumae, Shibuya City",03-6804-1477,ChIJI3id-LqMGGAR-nC8B7VP5v4,2,"2023-05-20 15:11:10.572881","2023-06-04 11:29:26.180048",35.6728036,139.7042754
104,"サラダデリ マルゴ　西新宿五丁目本店","Salad Deli MARGO","東京都渋谷区本町3-9-3","3-9-3 Honmachi, Shibuya City",03-5302-1808,ChIJWZ90LCjzGGARtfTTcvZUqf8,2,"2023-05-20 15:11:10.574637","2023-06-04 11:29:26.484669",35.689137,139.683246
105,"THE MATCHA TOKYO ミヤシタパーク","THE MATCHA TOKYO SHIBUYA MIYASHITA PARK","東京都渋谷区神宮前6-20-10 RAYARD MIYASHITA PARK","RAYARD MIYASHITA PARK, 6-20-10 Jingumae, Shibuya City",03-6805-0687,ChIJD9MoTLmNGGARkDxz7v9ubxg,2,"2023-05-20 15:11:10.576374","2023-06-04 11:29:26.794102",35.6608128,139.7015477
106,"ヴィーガンビストロじゃんがら
近隣：『九州じゃんがら』 原宿","VEGAN BISTRO JANGARA","東京都渋谷区神宮前１-13-21 2F","2F, 1-13-21 Jingumae, Shibuya City",03-3404-5572,ChIJaWQvzaiNGGARhBHfiQXyKWs,2,"2023-05-20 15:11:10.578192","2023-06-04 11:29:27.103945",35.669713,139.7034628
107,"ごはんカフェくるまる","cru mar","東京都杉並区和泉3-15-9","3-15-9 Izumi, Suginami City",03-6379-5388,ChIJBfy-9VPyGGARPij0nvJKTUA,2,"2023-05-20 15:11:10.580066","2023-06-04 11:29:27.509648",35.6777468,139.6451182
108,"ナタラジ 荻窪店","Nataraj　Ogikubo","東京都杉並区荻窪5-30-6　福村産業ビル B1F","Fukumura Sangyo Bldg. B1F, 5-30-6 Ogikubo, Suginami City",03-3398-5108,ChIJFxUiD_ftGGAR_HjvP1qIFIs,2,"2023-05-20 15:11:10.581891","2023-06-04 11:29:27.924861",35.7039039,139.621492
109,"『九州じゃんがら』 西武池袋店","Kyushu Jangara Seibu-Ikebukuro","東京都豊島区南池袋1-28-1　西武百貨店池袋本店 8F","Seibu Department Store Ikebukuro Main Shop 8F, 1-28-1 Minami-Ikebukuro, Toshima City",03-3981-5188,ChIJRVJ59WeNGGARESGeVt_0i0c,2,"2023-05-20 15:11:10.583666","2023-06-04 11:29:28.335941",35.7293829,139.7115808
110,"サフラン 池袋","Saffron Ikebukuro","東京都豊島区東池袋1-28-1　タクトTOビル 201","Takuto T.O. Bldg. 201, 1-28-1 Higashi-Ikebukuro, Toshima City",03-5952-5676,ChIJHeR2tGiNGGAR09oO8ZOoRP0,2,"2023-05-20 15:11:10.585412","2023-06-04 11:29:28.744042",35.7294444,139.716576
111,TAKAGIYA,TAKAGIYA,"東京都豊島区巣鴨2-9-26　ミツワビル 102","Mitsuwa Bldg. 102, 2-9-26 Sugamo, Toshima City",03-5980-8733,ChIJHR2uYpmNGGARKmuIDGT7Lf0,2,"2023-05-20 15:11:10.587186","2023-06-04 11:29:29.153195",35.7347652,139.7390194
112,"TSUMUGU CAFE 〜台湾茶とベジフードのおみせ〜","TSUMUGU CAFE","東京都豊島区西池袋3-36-20 1F","1F, 3-36-20 Nishi-Ikebukuro, Toshima City",03-5927-8889,ChIJdYdjV2-NGGARe8eqHtezK8g,2,"2023-05-20 15:11:10.588992","2023-06-04 11:29:29.459843",35.7303645,139.6995323
113,"AFURI 立川グリーンスプリングス店","AFURI Tachikawa GREEN SPRINGS","東京都立川市緑町3-1　GREEN SPRINGS 1F-E3 117","GREEN SPRINGS 1F-E3 117, 3-1 Midoricho, Tachikawa City",042-595-7713,ChIJiSNaBRzhGGARC5hZlqo871g,2,"2023-05-20 15:11:10.590795","2023-06-04 11:29:29.764090",35.7039657,139.412319
114,ORIDO.,ORIDO.,"東京都武蔵野市吉祥寺東町2-40-22　リトルマンション 1F","Little Mansion 1F, 2-40-22 Kichijoji- Higashicho, Musashino City",070-3392-0101,ChIJ3-WypEHuGGARI24edWb71ro,2,"2023-05-20 15:11:10.592550","2023-06-04 11:29:30.072909",35.7088516,139.587224
115,"AFURI 南町田グランベリーパーク店","AFURI Minamimachida Grandberry Park","東京都町田市鶴間3-4-1　グランベリーパーク セントラルコート 1F G103","Grandberry Park Central Court 1F G103, 3-4-1 Tsuruma, Machida City",042-850-5992,ChIJ8QcMjXj5GGAR4JLwUxcaVcA,2,"2023-05-20 15:11:10.594303","2023-06-04 11:29:30.484048",35.5093497,139.4699753
116,"カフェスロー",cafeSlow,"東京都国分寺市東元町2-20-10","2-20-10 Higashi-Motomachi, Kokubunji City",042-401-8505,ChIJZ0X0ZUnkGGARvfnHamMMu9k,2,"2023-05-20 15:11:10.596111","2023-06-04 11:29:30.895503",35.6966178,139.4814734
117,"Kunitachi Pasta Factory","Kunitachi Pasta Factory","東京都国立市東1-15-34","1-15-34 Higashi, Kunitachi City",042-505-8369,ChIJe2dKk1gHGWARDpIzjVm3NZI,2,"2023-05-20 15:11:10.597881","2023-06-04 11:29:31.206032",35.6968887,139.4484319
118,"中一素食店","nakaichi chienfu","東京都国立市中1-19-8　中一ビル","Nakaichi Bldg., 1-19-8 Naka, Kunitachi City",042-577-3446,ChIJPX5oX_njGGAR4easDVs_z40,2,"2023-05-20 15:11:10.599621","2023-06-04 11:29:31.714308",35.696274,139.4415366
119,"マハラジャ 丸の内店","Maharaja Marunouchi","東京都千代田区丸の内2-1-1","2-1-1 Marunouchi, Chiyoda City",03-5221-8271,ChIJ9cTEpfCLGGARlJzzCgOOZEU,3,"2023-05-20 15:11:10.601451","2023-06-04 11:29:32.122758",35.6794936,139.7621629
120,"クリスプ・サラダワークス　六本木ヒルズ店","CRISP SALAD WORKS ROPPONGI HILLS","東京都港区六本木6-10-1　六本木ヒルズ ヒルサイド 1F","Hillside 1F, Roppongi Hills, 6-10-1 Roppongi, Minato City",050-3160-0301,ChIJ01EQrneLGGAR9IZ8oi6FgL4,3,"2023-05-20 15:11:10.603229","2023-06-04 11:29:32.532261",35.6603016,139.7300387
121,"アマメリアエスプレッソ","AMAMERIA ESPRESSO","東京都品川区小山3-6-15 パークホームズ武蔵小山 1F","Park Homes Musashi-Koyama 1F, 3-6-15 Koyama, Shinagawa City",03-6426-9148,ChIJZfP7_tuKGGAR74GltzQCNh8,3,"2023-05-20 15:11:10.604996","2023-06-04 11:29:32.837668",35.6203058,139.7060551
122,"IKEA渋谷","IKEA Shibuya","東京都渋谷区宇田川町24-1　髙木ビルディング","Takagi Bldg., 24−1 Udagawacho, Shibuya City",0570-01-3900,ChIJb1rnLcWNGGARoIULehAwN10,3,"2023-05-20 15:11:10.606770","2023-06-04 11:29:33.245817",35.660502,139.6998329
123,"アイリッシュパブ　アンソラス","irish Pub An SÓLÁS","東京都渋谷区千駄ヶ谷5-22-3","5-22-3 Sendagaya, Shibuya City",03-5919-6686,ChIJq01afcaMGGARyot1tgXKGio,3,"2023-05-20 15:11:10.608518","2023-06-04 11:29:33.659971",35.6835339,139.7040599
124,"練馬 八百屋バル","vegetable bar Nerima","東京都練馬区豊玉北５-1-1 エスポワールアキヤマ102","Espoir Akiyama 102, 5-1-1 Toyotama-Kita, Nerima City",03-5912-0266,ChIJO9wGERLtGGARN66HPeqcBPE,3,"2023-05-20 15:11:10.610309","2023-06-04 11:29:34.069670",35.7394909,139.6612599
125,"ヴィーガン料理専門店 plant planet 白金台店",,"日本、〒108-0071 東京都港区白金台４丁目１８−４",,,ChIJZbuP9I6LGGARbD3SVlt7rvw,,"2023-05-28 14:26:35.406809","2023-06-04 11:29:34.478925",35.639167,139.7239424
126,"ヴィーガン&ワインバー キボコ",,"東京都新宿区新宿２丁目５−８ 志村ビル 4F",,,ChIJVVUiU8OMGGARmlud8Fkqmkk,,"2023-06-04 15:44:21.637588","2023-06-04 15:44:21.637588",,
127,"コンビニエンスストア髙橋",,"東京都練馬区春日町３丁目４−４ 春日町３丁目第２アパート４号棟",,,ChIJZymYjvrtGGARj7jgzzTmeQs,,"2023-06-04 15:45:35.435151","2023-06-04 15:45:35.435151",,
